SXM-7                   
1 47240U 20096A   26155.18239306 -.00000193  00000+0  00000+0 0  9997
2 47240   0.0328 102.8944 0004356  23.0716 107.1739  1.00270789  7310
IPM 2 & BREEZE-M R/B    
1 47242U 20097A   26154.84773125 -.00000059  00000+0  00000+0 0  9995
2 47242   5.3269  76.8805 0083493 279.0528  79.7390  0.95297521 19140
CMS-01                  
1 47256U 20099A   26155.08245668 -.00000153  00000+0  00000+0 0  9990
2 47256   0.0672 103.7923 0003485 182.5918  78.8358  1.00271294 20063
ONEWEB-0102             
1 47258U 20100A   26155.02117134 -.00000031  00000+0 -12268-3 0  9994
2 47258  87.8941 353.2947 0001470  88.0745 272.0552 13.12442743263007
ONEWEB-0109             
1 47259U 20100B   26155.02963890 -.00000281  00000+0 -81652-3 0  9993
2 47259  87.8950 353.2753 0001702  92.3931 267.7393 13.12442532262836
ONEWEB-0110             
1 47260U 20100C   26155.05674805 -.00000036  00000+0 -13426-3 0  9995
2 47260  87.8948 353.2540 0001579  80.4782 279.6525 13.12445006263001
ONEWEB-0111             
1 47261U 20100D   26155.08723636  .00000273  00000+0  72423-3 0  9999
2 47261  87.8952 353.2671 0001783  81.7044 278.4286 13.12443204262844
ONEWEB-0114             
1 47262U 20100E   26155.11773142 -.00000424  00000+0 -12151-2 0  9992
2 47262  87.8952 353.2577 0001794 102.1340 257.9989 13.12444979262807
ONEWEB-0117             
1 47263U 20100F   26155.03302534 -.00000341  00000+0 -98416-3 0  9994
2 47263  87.8949 353.2664 0001756  87.5133 272.6197 13.12442029262804
ONEWEB-0118             
1 47264U 20100G   26155.06691067  .00000354  00000+0  94846-3 0  9995
2 47264  87.8949 353.2623 0001998  95.6634 264.4722 13.12444017263009
ONEWEB-0119             
1 47265U 20100H   26155.09232767  .00000460  00000+0  12445-2 0  9999
2 47265  87.8938 353.2750 0001621  82.8912 277.2401 13.12442538262987
ONEWEB-0120             
1 47266U 20100J   26155.11618229 -.00000409  00000+0 -11734-2 0  9999
2 47266  87.8940 353.2711 0001636  96.3351 263.7964 13.12444416263017
ONEWEB-0121             
1 47267U 20100K   26155.02794542 -.00000245  00000+0 -71745-3 0  9990
2 47267  87.8952 353.2738 0001890  78.4200 281.7141 13.12441884262917
ONEWEB-0122             
1 47268U 20100L   26155.09826031 -.00000041  00000+0 -14802-3 0  9992
2 47268  87.8959 353.2651 0001517  93.8363 266.2939 13.12440849262830
ONEWEB-0123             
1 47269U 20100M   26155.01778784  .00000123  00000+0  30643-3 0  9996
2 47269  87.8942 353.2893 0001834  89.7977 270.3362 13.12442645262964
ONEWEB-0124             
1 47270U 20100N   26155.08386347  .00000352  00000+0  94311-3 0  9991
2 47270  87.8939 353.2785 0001846  86.0860 274.0479 13.12442880262855
ONEWEB-0125             
1 47271U 20100P   26155.06183465 -.00000028  00000+0 -11289-3 0  9991
2 47271  87.8954 353.2654 0002143  86.6977 273.4397 13.12444591262914
ONEWEB-0126             
1 47272U 20100Q   26155.08230677  .00000393  00000+0  10560-2 0  9995
2 47272  87.8947 353.2777 0001734  90.7451 269.3876 13.12441755262983
ONEWEB-0127             
1 47273U 20100R   26155.04827235 -.00000284  00000+0 -82383-3 0  9998
2 47273  87.8940 353.2838 0001726  89.1351 270.9976 13.12443998263001
ONEWEB-0128             
1 47274U 20100S   26155.07029799  .00000403  00000+0  10850-2 0  9991
2 47274  87.8940 353.2936 0001573  83.1746 276.9562 13.12443205263023
ONEWEB-0129             
1 47275U 20100T   26155.04996516 -.00000274  00000+0 -79621-3 0  9999
2 47275  87.8950 353.2699 0001788 125.4258 234.7038 13.12443154262951
ONEWEB-0130             
1 47276U 20100U   26155.07708636  .00000405  00000+0  10894-2 0  9997
2 47276  87.8950 353.2595 0001773  97.4158 262.7172 13.12442784262923
ONEWEB-0131             
1 47277U 20100V   26155.07369168  .00000436  00000+0  11752-2 0  9999
2 47277  87.8940 353.2793 0001726  87.5242 272.6085 13.12443390262966
ONEWEB-0132             
1 47278U 20100W   26155.10249438 -.00000229  00000+0 -67107-3 0  9999
2 47278  87.8943 353.2754 0001741  85.9109 274.2219 13.12441733262863
ONEWEB-0133             
1 47279U 20100X   26155.04305139 -.00000258  00000+0 -75316-3 0  9997
2 47279  87.8953 353.2614 0001624  92.2123 267.9192 13.12444798263018
ONEWEB-0134             
1 47280U 20100Y   26155.08893774  .00000277  00000+0  73557-3 0  9994
2 47280  87.8954 353.2502 0001523  93.0759 267.0544 13.12443049262995
ONEWEB-0135             
1 47281U 20100Z   26155.06013645  .00000119  00000+0  29417-3 0  9995
2 47281  87.8938 353.2798 0001449  87.2940 272.8355 13.12445507263018
ONEWEB-0136             
1 47282U 20100AA  26155.07877583  .00000428  00000+0  11552-2 0  9999
2 47282  87.8953 353.2569 0001467  92.4524 267.6773 13.12442963262948
ONEWEB-0137             
1 47283U 20100AB  26155.03641136 -.00000359  00000+0 -10338-2 0  9995
2 47283  87.8958 353.2740 0001927  97.4121 262.7227 13.12443580262849
ONEWEB-0138             
1 47284U 20100AC  26155.01439892  .00000146  00000+0  37014-3 0  9991
2 47284  87.8955 353.2859 0001684  99.7039 260.4280 13.12441887262922
